OBJECT_NAME,OBJECT_ID,EPOCH,MEAN_MOTION,ECCENTRICITY,INCLINATION,RA_OF_ASC_NODE,ARG_OF_PERICENTER,MEAN_ANOMALY,EPHEMERIS_TYPE,CLASSIFICATION_TYPE,NORAD_CAT_ID,ELEMENT_SET_NO,REV_AT_EPOCH,BSTAR,MEAN_MOTION_DOT,MEAN_MOTION_DDOT
ELECTRON R/B,2026-146B,2026-07-04T00:58:26.432544,15.66325398,.0198668,42.0762,70.9422,302.2988,55.8758,0,U,69702,999,115,.89679882E-3,.297246E-2,.3223696E-4
ELECTRON KICK STAGE R/B,2026-146C,2026-07-04T01:30:10.353312,15.04872745,.00106232,41.9877,74.7241,312.9239,47.0696,0,U,69703,999,110,.38549899E-3,.5363E-4,0
STARLINK-38055,2026-147A,2026-07-04T04:00:03.999744,15.88377057,.00012112,97.2835,220.9052,66.1346,341.9708,0,U,69704,999,197,-.10039853E-1,-.2336545E-1,0
STARLINK-37898,2026-147B,2026-07-04T04:00:03.999744,15.88464569,.00013226,97.2836,220.9061,61.2517,349.3859,0,U,69705,999,197,-.93157746E-2,-.2202096E-1,0
STARLINK-37970,2026-147C,2026-07-04T04:00:03.999744,15.88719600,.00014308,97.2837,220.9073,62.9968,350.1585,0,U,69706,999,197,-.90696705E-2,-.21763E-1,0
STARLINK-37975,2026-147D,2026-07-04T04:00:03.999744,15.88978234,.00013131,97.2837,220.9083,63.0107,352.6542,0,U,69707,999,197,-.89102662E-2,-.2167475E-1,0
STARLINK-37972,2026-147E,2026-07-04T04:00:03.999744,15.89225222,.0001358,97.2837,220.9094,61.8585,356.3013,0,U,69708,999,197,-.87381227E-2,-.2154604E-1,0
STARLINK-37963,2026-147F,2026-07-04T04:00:03.999744,15.89463973,.00013761,97.2836,220.9102,55.8662,4.7234,0,U,69709,999,197,-.85374407E-2,-.2442818E-1,.15538927E-2
STARLINK-37969,2026-147G,2026-07-04T04:00:03.999744,15.89695735,.00013895,97.2837,220.9114,55.2960,7.7307,0,U,69710,999,212,-.83394338E-2,-.2414214E-1,.1522704E-2
STARLINK-37956,2026-147H,2026-07-04T04:00:03.999744,15.89938009,.0001427,97.2837,220.9123,58.3249,6.8248,0,U,69711,999,197,-.81299746E-2,-.2382617E-1,.14883588E-2
STARLINK-38043,2026-147J,2026-07-04T04:00:03.999744,15.90167083,.00012592,97.2837,220.9132,64.8272,2.6650,0,U,69712,999,197,-.79773253E-2,-.2365053E-1,.1470882E-2
STARLINK-38020,2026-147K,2026-07-04T04:00:03.999744,15.90382275,.00012676,97.2835,220.9143,67.7274,2.1370,0,U,69713,999,197,-.78048547E-2,-.2339374E-1,.14436365E-2
STARLINK-38059,2026-147L,2026-07-04T04:00:03.999744,15.90599905,.00012429,97.2835,220.9150,62.4891,9.5628,0,U,69714,999,197,-.76373549E-2,-.2314685E-1,.14178114E-2
STARLINK-38061,2026-147M,2026-07-04T04:00:03.999744,15.90818678,.00012955,97.2838,220.9156,60.7029,13.5687,0,U,69715,999,206,-.75146707E-2,-.2302983E-1,.14073587E-2
STARLINK-38060,2026-147N,2026-07-04T04:00:03.999744,15.91029509,.00013579,97.2837,220.9165,66.9265,9.4783,0,U,69716,999,206,-.73544671E-2,-.2278376E-1,.13817877E-2
STARLINK-38040,2026-147P,2026-07-04T04:00:03.999744,15.91242621,.00012674,97.2838,220.9175,62.8934,15.5510,0,U,69717,999,206,-.7231957E-2,-.2264939E-1,.1369329E-2
STARLINK-37989,2026-147Q,2026-07-04T04:00:03.999744,15.91432729,.0001255,97.2835,220.9182,67.2981,13.3748,0,U,69718,999,206,-.70404516E-2,-.2226807E-1,.13283073E-2
STARLINK-38039,2026-147R,2026-07-04T04:00:03.999744,15.91627658,.00013154,97.2834,220.9191,63.8284,18.9195,0,U,69719,999,206,-.68855606E-2,-.2199897E-1,.13005558E-2
STARLINK-38003,2026-147S,2026-07-04T04:00:03.999744,15.91821520,.00012263,97.2835,220.9198,67.0530,18.0102,0,U,69720,999,206,-.68001927E-2,-.2194318E-1,.12969359E-2
STARLINK-38014,2026-147T,2026-07-04T04:00:03.999744,15.92011733,.0001215,97.2836,220.9203,63.7875,23.1814,0,U,69721,999,206,-.66429589E-2,-.2164903E-1,.12665994E-2
STARLINK-37915,2026-147U,2026-07-04T04:00:03.999744,15.92200678,.00012411,97.2837,220.9212,63.3913,25.8199,0,U,69722,999,206,-.6555337E-2,-.2157282E-1,.1260655E-2
STARLINK-38007,2026-147V,2026-07-04T04:00:03.999744,15.91682423,.00013942,97.2836,220.9213,59.3329,30.9355,0,U,69723,999,206,-.84961035E-2,-.2718047E-1,.19629544E-2
STARLINK-38008,2026-147W,2026-07-04T04:00:03.999744,15.92566724,.00013682,97.2838,220.9236,66.1197,26.8609,0,U,69724,999,206,-.62924237E-2,-.2110745E-1,.12142233E-2
STARLINK-38021,2026-147X,2026-07-04T04:00:03.999744,15.92738814,.0001306,97.2836,220.9248,67.9935,27.3786,0,U,69725,999,206,-.62473457E-2,-.2114299E-1,.12203302E-2
STARLINK-38015,2026-147Y,2026-07-04T04:00:03.999744,15.92916012,.00014721,97.2836,220.9252,56.3583,40.9743,0,U,69726,999,206,-.61391719E-2,-.209709E-1,.12038319E-2
STARLINK-38010,2026-147Z,2026-07-04T04:00:03.999744,15.93093366,.00013456,97.2835,220.9260,59.2950,39.9965,0,U,69727,999,206,-.60616391E-2,-.2089805E-1,.11981757E-2
SXM-11,2026-148A,2026-07-02T18:38:30.146784,2.87966624,.6817708,26.8166,144.0522,178.2879,186.7543,0,U,69728,999,14,0,-.235E-5,0
HAIYANG-2E,2026-149A,2026-07-03T18:31:55.470720,13.83065693,.00089627,99.3440,191.8474,233.1690,126.8643,0,U,69737,999,25,-.59752801E+0,-.623136E-2,0
CZ-4B R/B,2026-149B,2026-07-04T06:38:55.797216,14.30063811,.01986891,99.3214,192.5160,1.5229,358.6515,0,U,69738,999,57,.595313E-6,-.55E-6,0
