ELECTRON R/B            
1 69702U 26146B   26185.04058371  .00297246  32237-4  89680-3 0  9998
2 69702  42.0762  70.9422 0198668 302.2988  55.8758 15.66325398  1154
ELECTRON KICK STAGE R/B 
1 69703U 26146C   26185.06261983  .00005363  00000+0  38550-3 0  9991
2 69703  41.9877  74.7241 0010623 312.9239  47.0696 15.04872745  1106
STARLINK-38055          
1 69704U 26147A   26185.16671296 -.02336545  00000+0 -10040-1 0  9991
2 69704  97.2835 220.9052 0001211  66.1346 341.9708 15.88377057  1973
STARLINK-37898          
1 69705U 26147B   26185.16671296 -.02202096  00000+0 -93158-2 0  9997
2 69705  97.2836 220.9061 0001322  61.2517 349.3859 15.88464569  1978
STARLINK-37970          
1 69706U 26147C   26185.16671296 -.02176300  00000+0 -90697-2 0  9991
2 69706  97.2837 220.9073 0001430  62.9968 350.1585 15.88719600  1976
STARLINK-37975          
1 69707U 26147D   26185.16671296 -.02167475  00000+0 -89103-2 0  9995
2 69707  97.2837 220.9083 0001313  63.0107 352.6542 15.88978234  1975
STARLINK-37972          
1 69708U 26147E   26185.16671296 -.02154604  00000+0 -87381-2 0  9992
2 69708  97.2837 220.9094 0001358  61.8585 356.3013 15.89225222  1970
STARLINK-37963          
1 69709U 26147F   26185.16671296 -.02442818  15539-2 -85374-2 0  9996
2 69709  97.2836 220.9102 0001376  55.8662   4.7234 15.89463973  1975
STARLINK-37969          
1 69710U 26147G   26185.16671296 -.02414214  15227-2 -83394-2 0  9991
2 69710  97.2837 220.9114 0001389  55.2960   7.7307 15.89695735  2125
STARLINK-37956          
1 69711U 26147H   26185.16671296 -.02382617  14884-2 -81300-2 0  9996
2 69711  97.2837 220.9123 0001427  58.3249   6.8248 15.89938009  1973
STARLINK-38043          
1 69712U 26147J   26185.16671296 -.02365053  14709-2 -79773-2 0  9999
2 69712  97.2837 220.9132 0001259  64.8272   2.6650 15.90167083  1974
STARLINK-38020          
1 69713U 26147K   26185.16671296 -.02339374  14436-2 -78049-2 0  9999
2 69713  97.2835 220.9143 0001267  67.7274   2.1370 15.90382275  1974
STARLINK-38059          
1 69714U 26147L   26185.16671296 -.02314685  14178-2 -76374-2 0  9990
2 69714  97.2835 220.9150 0001242  62.4891   9.5628 15.90599905  1970
STARLINK-38061          
1 69715U 26147M   26185.16671296 -.02302983  14074-2 -75147-2 0  9991
2 69715  97.2838 220.9156 0001295  60.7029  13.5687 15.90818678  2064
STARLINK-38060          
1 69716U 26147N   26185.16671296 -.02278376  13818-2 -73545-2 0  9995
2 69716  97.2837 220.9165 0001357  66.9265   9.4783 15.91029509  2062
STARLINK-38040          
1 69717U 26147P   26185.16671296 -.02264939  13693-2 -72320-2 0  9997
2 69717  97.2838 220.9175 0001267  62.8934  15.5510 15.91242621  2061
STARLINK-37989          
1 69718U 26147Q   26185.16671296 -.02226807  13283-2 -70405-2 0  9997
2 69718  97.2835 220.9182 0001255  67.2981  13.3748 15.91432729  2064
STARLINK-38039          
1 69719U 26147R   26185.16671296 -.02199897  13006-2 -68856-2 0  9996
2 69719  97.2834 220.9191 0001315  63.8284  18.9195 15.91627658  2063
STARLINK-38003          
1 69720U 26147S   26185.16671296 -.02194318  12969-2 -68002-2 0  9991
2 69720  97.2835 220.9198 0001226  67.0530  18.0102 15.91821520  2067
STARLINK-38014          
1 69721U 26147T   26185.16671296 -.02164903  12666-2 -66430-2 0  9996
2 69721  97.2836 220.9203 0001215  63.7875  23.1814 15.92011733  2064
STARLINK-37915          
1 69722U 26147U   26185.16671296 -.02157282  12607-2 -65553-2 0  9999
2 69722  97.2837 220.9212 0001241  63.3913  25.8199 15.92200678  2067
STARLINK-38007          
1 69723U 26147V   26185.16671296 -.02718047  19630-2 -84961-2 0  9999
2 69723  97.2836 220.9213 0001394  59.3329  30.9355 15.91682423  2065
STARLINK-38008          
1 69724U 26147W   26185.16671296 -.02110745  12142-2 -62924-2 0  9997
2 69724  97.2838 220.9236 0001368  66.1197  26.8609 15.92566724  2065
STARLINK-38021          
1 69725U 26147X   26185.16671296 -.02114299  12203-2 -62473-2 0  9993
2 69725  97.2836 220.9248 0001306  67.9935  27.3786 15.92738814  2061
STARLINK-38015          
1 69726U 26147Y   26185.16671296 -.02097090  12038-2 -61392-2 0  9998
2 69726  97.2836 220.9252 0001472  56.3583  40.9743 15.92916012  2064
STARLINK-38010          
1 69727U 26147Z   26185.16671296 -.02089805  11982-2 -60616-2 0  9999
2 69727  97.2835 220.9260 0001345  59.2950  39.9965 15.93093366  2065
SXM-11                  
1 69728U 26148A   26183.77673781 -.00000235  00000+0  00000+0 0  9998
2 69728  26.8166 144.0522 6817708 178.2879 186.7543  2.87966624   149
HAIYANG-2E              
1 69737U 26149A   26184.77216980 -.00623136  00000+0 -59753+0 0  9995
2 69737  99.3440 191.8474 0008962 233.1690 126.8643 13.83065693   257
CZ-4B R/B               
1 69738U 26149B   26185.27703469 -.00000055  00000+0  59531-6 0  9994
2 69738  99.3214 192.5160 0198689   1.5229 358.6515 14.30063811   579
